*******************************************************************************
Ephemeris / WWW_USER Mon Mar 24 08:51:38 2025 Pasadena, USA      / Horizons    
*******************************************************************************
Target body name: (2018 PU7)                      {source: JPL#13}
Center body name: Earth (399)                     {source: DE441}
Center-site name: Mauna Kea
*******************************************************************************
Start time      : A.D. 2018-Oct-10 04:12:00.0000 UT      
Stop  time      : A.D. 2018-Oct-10 16:05:00.0000 UT      
Step-size       : 1 minutes
*******************************************************************************
Target pole/equ : undefined
Target radii    : undefined                                                    
Center geodetic : 204.5278, 19.8260847, 4.21024   {E-lon(deg),Lat(deg),Alt(km)}
Center cylindric: 204.5278, 6006.35451, 2151.0229 {E-lon(deg),Dxy(km),Dz(km)}
Center pole/equ : ITRF93                          {East-longitude positive}
Center radii    : 6378.137, 6378.137, 6356.752 km {Equator_a, b, pole_c}       
Target primary  : Sun
Vis. interferer : MOON (R_eq= 1737.400) km        {source: DE441}
Rel. light bend : Sun                             {source: DE441}
Rel. lght bnd GM: 1.3271E+11 km^3/s^2                                          
Small-body perts: Yes                             {source: SB441-N16}
Atmos refraction: NO (AIRLESS)
RA format       : HMS
Time format     : CAL 
Calendar mode   : Mixed Julian/Gregorian
RTS-only print  : NO       
EOP file        : eop.250321.p250617                                           
EOP coverage    : DATA-BASED 1962-JAN-20 TO 2025-MAR-21. PREDICTS-> 2025-JUN-16
Units conversion: 1 au= 149597870.700 km, c= 299792.458 km/s, 1 day= 86400.0 s 
Table cut-offs 1: Elevation (-90.0deg=NO ),Airmass (>38.000=NO), Daylight (YES)
Table cut-offs 2: Solar elongation (  0.0,180.0=NO ),Local Hour Angle( 0.0=NO )
Table cut-offs 3: RA/DEC angular rate (     0.0=NO )                           
*******************************************************************************
Initial IAU76/J2000 heliocentric ecliptic osculating elements (au, days, deg.):
  EPOCH=  2458344.5 ! 2018-Aug-14.00 (TDB)         Residual RMS= .35253        
   EC= .5418411610879256   QR= .9908981152950816   TP= 2458306.0483912583      
   OM= 307.3200871504195   W=  329.2166965634538   IN= 6.906215163822786       
  Equivalent ICRF heliocentric cartesian coordinates (au, au/d):
   X= 8.533350742151261E-01  Y=-6.504796009993946E-01  Z=-2.480927258064065E-01
  VX= 1.615085148536055E-02 VY= 9.661045842052620E-03 VZ= 6.810490395822813E-03
Asteroid physical parameters (km, seconds, rotational period in hours):        
   GM= n.a.                RAD= n.a.               ROTPER= n.a.                
   H= 23.4                 G= .150                 B-V= n.a.                   
                           ALBEDO= n.a.            STYP= n.a.                  
*******************************************************************************
 Date__(UT)__HR:MN     R.A._________(ICRF)_________DEC
******************************************************
$$SOE
 2018-Oct-10 04:12 Cm  22 25 10.458692 +06 20 51.32216
 2018-Oct-10 04:13 Cm  22 25 10.499054 +06 20 51.22239
 2018-Oct-10 04:14 Cm  22 25 10.539403 +06 20 51.12261
 2018-Oct-10 04:15 Cm  22 25 10.579738 +06 20 51.02282
 2018-Oct-10 04:16 Cm  22 25 10.620060 +06 20 50.92300
 2018-Oct-10 04:17 Cm  22 25 10.660368 +06 20 50.82318
 2018-Oct-10 04:18 Cm  22 25 10.700662 +06 20 50.72333
 2018-Oct-10 04:19 Cm  22 25 10.740943 +06 20 50.62347
 2018-Oct-10 04:20 Cm  22 25 10.781210 +06 20 50.52359
 2018-Oct-10 04:21 Cm  22 25 10.821464 +06 20 50.42369
 2018-Oct-10 04:22 Cm  22 25 10.861705 +06 20 50.32378
 2018-Oct-10 04:23 Cm  22 25 10.901932 +06 20 50.22385
 2018-Oct-10 04:24 Cm  22 25 10.942147 +06 20 50.12390
 2018-Oct-10 04:25 Cm  22 25 10.982348 +06 20 50.02393
 2018-Oct-10 04:26 Nm  22 25 11.022536 +06 20 49.92395
 2018-Oct-10 04:27 Nm  22 25 11.062711 +06 20 49.82395
 2018-Oct-10 04:28 Nm  22 25 11.102873 +06 20 49.72394
 2018-Oct-10 04:29 Nm  22 25 11.143022 +06 20 49.62390
 2018-Oct-10 04:30 Nm  22 25 11.183158 +06 20 49.52385
 2018-Oct-10 04:31 Nm  22 25 11.223281 +06 20 49.42378
 2018-Oct-10 04:32 Nm  22 25 11.263392 +06 20 49.32369
 2018-Oct-10 04:33 Nm  22 25 11.303490 +06 20 49.22358
 2018-Oct-10 04:34 Nm  22 25 11.343575 +06 20 49.12346
 2018-Oct-10 04:35 Nm  22 25 11.383647 +06 20 49.02331
 2018-Oct-10 04:36 Nm  22 25 11.423708 +06 20 48.92315
 2018-Oct-10 04:37 Nm  22 25 11.463755 +06 20 48.82297
 2018-Oct-10 04:38 Nm  22 25 11.503790 +06 20 48.72277
 2018-Oct-10 04:39 Nm  22 25 11.543813 +06 20 48.62256
 2018-Oct-10 04:40 Nm  22 25 11.583824 +06 20 48.52232
 2018-Oct-10 04:41 Nm  22 25 11.623822 +06 20 48.42207
 2018-Oct-10 04:42 Nm  22 25 11.663808 +06 20 48.32179
 2018-Oct-10 04:43 Nm  22 25 11.703782 +06 20 48.22150
 2018-Oct-10 04:44 Nm  22 25 11.743744 +06 20 48.12119
 2018-Oct-10 04:45 Nm  22 25 11.783694 +06 20 48.02086
 2018-Oct-10 04:46 Nm  22 25 11.823632 +06 20 47.92051
 2018-Oct-10 04:47 Nm  22 25 11.863558 +06 20 47.82014
 2018-Oct-10 04:48 Nm  22 25 11.903472 +06 20 47.71975
 2018-Oct-10 04:49 Nm  22 25 11.943375 +06 20 47.61934
 2018-Oct-10 04:50 Nm  22 25 11.983265 +06 20 47.51892
 2018-Oct-10 04:51 Am  22 25 12.023145 +06 20 47.41847
 2018-Oct-10 04:52 Am  22 25 12.063012 +06 20 47.31800
 2018-Oct-10 04:53 Am  22 25 12.102868 +06 20 47.21752
 2018-Oct-10 04:54 Am  22 25 12.142713 +06 20 47.11701
 2018-Oct-10 04:55 Am  22 25 12.182546 +06 20 47.01648
 2018-Oct-10 04:56 Am  22 25 12.222368 +06 20 46.91593
 2018-Oct-10 04:57 Am  22 25 12.262179 +06 20 46.81537
 2018-Oct-10 04:58 Am  22 25 12.301978 +06 20 46.71478
 2018-Oct-10 04:59 Am  22 25 12.341766 +06 20 46.61417
 2018-Oct-10 05:00 Am  22 25 12.381544 +06 20 46.51354
 2018-Oct-10 05:01 Am  22 25 12.421310 +06 20 46.41289
 2018-Oct-10 05:02 Am  22 25 12.461065 +06 20 46.31222
 2018-Oct-10 05:03 Am  22 25 12.500810 +06 20 46.21153
 2018-Oct-10 05:04 Am  22 25 12.540543 +06 20 46.11082
 2018-Oct-10 05:05 Am  22 25 12.580266 +06 20 46.01009
 2018-Oct-10 05:06 A   22 25 12.619978 +06 20 45.90934
 2018-Oct-10 05:07 A   22 25 12.659680 +06 20 45.80856
 2018-Oct-10 05:08 A   22 25 12.699371 +06 20 45.70777
 2018-Oct-10 05:09 A   22 25 12.739051 +06 20 45.60695
 2018-Oct-10 05:10 A   22 25 12.778721 +06 20 45.50612
 2018-Oct-10 05:11 A   22 25 12.818381 +06 20 45.40526
 2018-Oct-10 05:12 A   22 25 12.858030 +06 20 45.30438
 2018-Oct-10 05:13 A   22 25 12.897669 +06 20 45.20347
 2018-Oct-10 05:14 A   22 25 12.937298 +06 20 45.10255
 2018-Oct-10 05:15 A   22 25 12.976917 +06 20 45.00161
 2018-Oct-10 05:16 A   22 25 13.016526 +06 20 44.90064
 2018-Oct-10 05:17     22 25 13.056125 +06 20 44.79965
 2018-Oct-10 05:18     22 25 13.095714 +06 20 44.69864
 2018-Oct-10 05:19     22 25 13.135293 +06 20 44.59761
 2018-Oct-10 05:20     22 25 13.174862 +06 20 44.49655
 2018-Oct-10 05:21     22 25 13.214422 +06 20 44.39548
 2018-Oct-10 05:22     22 25 13.253972 +06 20 44.29438
 2018-Oct-10 05:23     22 25 13.293513 +06 20 44.19326
 2018-Oct-10 05:24     22 25 13.333044 +06 20 44.09211
 2018-Oct-10 05:25     22 25 13.372565 +06 20 43.99095
 2018-Oct-10 05:26     22 25 13.412077 +06 20 43.88976
 2018-Oct-10 05:27     22 25 13.451580 +06 20 43.78855
 2018-Oct-10 05:28     22 25 13.491074 +06 20 43.68732
 2018-Oct-10 05:29     22 25 13.530559 +06 20 43.58606
 2018-Oct-10 05:30     22 25 13.570034 +06 20 43.48478
 2018-Oct-10 05:31     22 25 13.609501 +06 20 43.38348
 2018-Oct-10 05:32     22 25 13.648958 +06 20 43.28215
 2018-Oct-10 05:33     22 25 13.688407 +06 20 43.18081
 2018-Oct-10 05:34     22 25 13.727847 +06 20 43.07944
 2018-Oct-10 05:35     22 25 13.767278 +06 20 42.97804
 2018-Oct-10 05:36     22 25 13.806701 +06 20 42.87663
 2018-Oct-10 05:37     22 25 13.846115 +06 20 42.77519
 2018-Oct-10 05:38     22 25 13.885520 +06 20 42.67372
 2018-Oct-10 05:39     22 25 13.924917 +06 20 42.57224
 2018-Oct-10 05:40     22 25 13.964306 +06 20 42.47073
 2018-Oct-10 05:41     22 25 14.003686 +06 20 42.36919
 2018-Oct-10 05:42     22 25 14.043058 +06 20 42.26764
 2018-Oct-10 05:43     22 25 14.082422 +06 20 42.16606
 2018-Oct-10 05:44     22 25 14.121778 +06 20 42.06445
 2018-Oct-10 05:45     22 25 14.161126 +06 20 41.96283
 2018-Oct-10 05:46     22 25 14.200466 +06 20 41.86117
 2018-Oct-10 05:47     22 25 14.239798 +06 20 41.75950
 2018-Oct-10 05:48     22 25 14.279122 +06 20 41.65780
 2018-Oct-10 05:49     22 25 14.318438 +06 20 41.55608
 2018-Oct-10 05:50     22 25 14.357747 +06 20 41.45433
 2018-Oct-10 05:51     22 25 14.397048 +06 20 41.35256
 2018-Oct-10 05:52     22 25 14.436342 +06 20 41.25076
 2018-Oct-10 05:53     22 25 14.475628 +06 20 41.14894
 2018-Oct-10 05:54     22 25 14.514907 +06 20 41.04710
 2018-Oct-10 05:55     22 25 14.554179 +06 20 40.94523
 2018-Oct-10 05:56     22 25 14.593443 +06 20 40.84334
 2018-Oct-10 05:57     22 25 14.632701 +06 20 40.74142
 2018-Oct-10 05:58     22 25 14.671951 +06 20 40.63948
 2018-Oct-10 05:59     22 25 14.711194 +06 20 40.53751
 2018-Oct-10 06:00     22 25 14.750430 +06 20 40.43552
 2018-Oct-10 06:01     22 25 14.789660 +06 20 40.33351
 2018-Oct-10 06:02     22 25 14.828883 +06 20 40.23147
 2018-Oct-10 06:03     22 25 14.868099 +06 20 40.12940
 2018-Oct-10 06:04     22 25 14.907308 +06 20 40.02731
 2018-Oct-10 06:05     22 25 14.946511 +06 20 39.92520
 2018-Oct-10 06:06     22 25 14.985707 +06 20 39.82306
 2018-Oct-10 06:07     22 25 15.024897 +06 20 39.72090
 2018-Oct-10 06:08     22 25 15.064081 +06 20 39.61871
 2018-Oct-10 06:09     22 25 15.103258 +06 20 39.51650
 2018-Oct-10 06:10     22 25 15.142430 +06 20 39.41426
 2018-Oct-10 06:11     22 25 15.181595 +06 20 39.31199
 2018-Oct-10 06:12     22 25 15.220754 +06 20 39.20970
 2018-Oct-10 06:13     22 25 15.259907 +06 20 39.10739
 2018-Oct-10 06:14     22 25 15.299054 +06 20 39.00505
